<?xml version='1.0' encoding='UTF-8' standalone='yes' ?>
<gpx xmlns="http://www.topografix.com/GPX/1/1" xmlns:geotracker="http://ilyabogdanovich.com/gpx/extensions/geotracker" xmlns:xsi="http://www.w3.org/2001/XMLSchema-instance" xsi:schemaLocation="http://www.topografix.com/GPX/1/1 http://www.topografix.com/GPX/1/1/gpx.xsd" version="1.1" creator="Recorded in Geo Tracker for Android from Ilya Bogdanovich">
  <metadata>
    <name>Jul 16 22222</name>
    <author>
      <name>Recorded in Geo Tracker for Android from Ilya Bogdanovich</name>
      <link href="https://play.google.com/store/apps/details?id=com.ilyabogdanovich.geotracker" />
    </author>
    <link href="https://play.google.com/store/apps/details?id=com.ilyabogdanovich.geotracker" />
    <time>2026-07-16T21:49:44Z</time>
  </metadata>
  <trk>
    <name>Jul 16 22222</name>
    <src>Recorded in Geo Tracker for Android from Ilya Bogdanovich</src>
    <link href="https://play.google.com/store/apps/details?id=com.ilyabogdanovich.geotracker" />
    <extensions>
      <geotracker:meta>
        <geotracker:length>108.56</geotracker:length>
        <geotracker:duration>1343410</geotracker:duration>
        <geotracker:creationtime>2026-07-16T21:49:44Z</geotracker:creationtime>
        <geotracker:activity>0</geotracker:activity>
      </geotracker:meta>
    </extensions>
    <trkseg>
      <trkpt lat="42.72399667" lon="-84.48003333">
        <ele>240.6</ele>
        <time>2026-07-16T21:51:00Z</time>
        <extensions>
          <geotracker:meta c="0.2" s="0" />
        </extensions>
      </trkpt>
      <trkpt lat="42.72401333" lon="-84.48002">
        <ele>237.2</ele>
        <time>2026-07-16T21:54:41Z</time>
        <extensions>
          <geotracker:meta c="1.33" s="0" />
        </extensions>
      </trkpt>
      <trkpt lat="42.72409833" lon="-84.48003667">
        <ele>231.5</ele>
        <time>2026-07-16T21:56:42Z</time>
        <extensions>
          <geotracker:meta c="4.1" s="0" />
        </extensions>
      </trkpt>
      <trkpt lat="42.72409833" lon="-84.48003667">
        <ele>231.5</ele>
        <time>2026-07-16T21:58:43Z</time>
        <extensions>
          <geotracker:meta c="3.49" s="0" />
        </extensions>
      </trkpt>
      <trkpt lat="42.72419833" lon="-84.480045">
        <ele>227</ele>
        <time>2026-07-16T21:58:50Z</time>
        <extensions>
          <geotracker:meta c="6.16" s="0.94" />
        </extensions>
      </trkpt>
      <trkpt lat="42.72429" lon="-84.48003333">
        <ele>225.2</ele>
        <time>2026-07-16T21:59:04Z</time>
        <extensions>
          <geotracker:meta c="0.15" s="0.52" />
        </extensions>
      </trkpt>
      <trkpt lat="42.72437667" lon="-84.47996167">
        <ele>220.7</ele>
        <time>2026-07-16T22:01:01Z</time>
        <extensions>
          <geotracker:meta c="0.32" s="1.06" />
        </extensions>
      </trkpt>
      <trkpt lat="42.72447" lon="-84.47997667">
        <ele>220.9</ele>
        <time>2026-07-16T22:02:37Z</time>
        <extensions>
          <geotracker:meta c="0.35" s="0.71" />
        </extensions>
      </trkpt>
      <trkpt lat="42.72456667" lon="-84.47996667">
        <ele>221.4</ele>
        <time>2026-07-16T22:04:37Z</time>
        <extensions>
          <geotracker:meta c="0.04" s="0.65" />
        </extensions>
      </trkpt>
      <trkpt lat="42.72456" lon="-84.47992333">
        <ele>230.9</ele>
        <time>2026-07-16T22:06:38Z</time>
        <extensions>
          <geotracker:meta c="3.87" s="0" />
        </extensions>
      </trkpt>
      <trkpt lat="42.724555" lon="-84.48004667">
        <ele>232.7</ele>
        <time>2026-07-16T22:08:15Z</time>
        <extensions>
          <geotracker:meta c="4.66" s="0.25" />
        </extensions>
      </trkpt>
      <trkpt lat="42.72464667" lon="-84.48002667">
        <ele>235.1</ele>
        <time>2026-07-16T22:08:42Z</time>
        <extensions>
          <geotracker:meta c="0.14" s="0.41" />
        </extensions>
      </trkpt>
      <trkpt lat="42.72465167" lon="-84.48002">
        <ele>234.9</ele>
        <time>2026-07-16T22:10:43Z</time>
        <extensions>
          <geotracker:meta c="0.52" s="0" />
        </extensions>
      </trkpt>
      <trkpt lat="42.72466333" lon="-84.47989833">
        <ele>235.2</ele>
        <time>2026-07-16T22:10:52Z</time>
        <extensions>
          <geotracker:meta c="0.52" s="0" />
        </extensions>
      </trkpt>
      <trkpt lat="42.72464" lon="-84.48002">
        <ele>236.8</ele>
        <time>2026-07-16T22:12:07Z</time>
        <extensions>
          <geotracker:meta c="3.51" s="0.68" />
        </extensions>
      </trkpt>
    </trkseg>
  </trk>
</gpx>